[{"OBJECT_NAME":"HAIYANG-2B","OBJECT_ID":"2018-081A","EPOCH":"2026-03-10T00:03:41.001696","MEAN_MOTION":13.79306715,"ECCENTRICITY":0.0001262,"INCLINATION":99.3339,"RA_OF_ASC_NODE":79.2399,"ARG_OF_PERICENTER":141.6934,"MEAN_ANOMALY":218.4307,"EPHEMERIS_TYPE":0,"CLASSIFICATION_TYPE":"U","NORAD_CAT_ID":43655,"ELEMENT_SET_NO":999,"REV_AT_EPOCH":37125,"BSTAR":-0.00018769625,"MEAN_MOTION_DOT":-2.37e-6,"MEAN_MOTION_DDOT":0},{"OBJECT_NAME":"SL-8 R\/B","OBJECT_ID":"2001-023B","EPOCH":"2026-03-09T22:52:31.346112","MEAN_MOTION":13.75933064,"ECCENTRICITY":0.00216429,"INCLINATION":82.9204,"RA_OF_ASC_NODE":274.0392,"ARG_OF_PERICENTER":256.5679,"MEAN_ANOMALY":214.8807,"EPHEMERIS_TYPE":0,"CLASSIFICATION_TYPE":"U","NORAD_CAT_ID":26819,"ELEMENT_SET_NO":999,"REV_AT_EPOCH":24268,"BSTAR":0.00015604146,"MEAN_MOTION_DOT":1.66e-6,"MEAN_MOTION_DDOT":0}]
